*******************************************************************************
 Revised: Sep 29, 2017            Euanthe / (Jupiter)                       533
  
 Jovian irregular satellite.
*******************************************************************************
 
 
*******************************************************************************
Ephemeris / WWW_USER Sun Nov 12 11:20:56 2017 Pasadena, USA      / Horizons    
*******************************************************************************
Target body name: Euanthe (533)                   {source: jup341}
Center body name: Solar System Barycenter (0)     {source: DE431mx}
Center-site name: BODY CENTER
*******************************************************************************
Start time      : A.D. 2017-Jul-10 00:00:00.0000 TDB
Stop  time      : A.D. 2020-Aug-13 00:00:00.0000 TDB
Step-size       : 1440 minutes
*******************************************************************************
Center geodetic : 0.00000000,0.00000000,0.0000000 {E-lon(deg),Lat(deg),Alt(km)}
Center cylindric: 0.00000000,0.00000000,0.0000000 {E-lon(deg),Dxy(km),Dz(km)}
Center radii    : (undefined)                                                  
Output units    : KM-S                                                         
Output type     : GEOMETRIC cartesian states
Output format   : 3 (position, velocity, LT, range, range-rate)
Reference frame : ICRF/J2000.0                                                 
Coordinate systm: Ecliptic and Mean Equinox of Reference Epoch                 
*******************************************************************************
            JDTDB,            Calendar Date (TDB),                      X,                      Y,                      Z,                     VX,                     VY,                     VZ,                     LT,                     RG,                     RR,
**************************************************************************************************************************************************************************************************************************************************************************
$$SOE
2458466.500000000, A.D. 2018-Dec-14 00:00:00.0000, -3.426070070890773E+08, -7.404755591425159E+08,  2.072525749451441E+07,  9.260156983165079E+00, -3.983685002754105E+00,  5.918868398660755E-01,  2.722408557001109E+03,  8.161575529835956E+08, -2.579235851972785E-01,
2458467.500000000, A.D. 2018-Dec-15 00:00:00.0000, -3.418062689128255E+08, -7.408180177469628E+08,  2.077566454405844E+07,  9.275496150457196E+00, -3.943637360371560E+00,  5.749369863934903E-01,  2.722329549594584E+03,  8.161338671589932E+08, -2.903450414835932E-01,
2458468.500000000, A.D. 2018-Dec-16 00:00:00.0000, -3.410041932593380E+08, -7.411570265989844E+08,  2.082460561861819E+07,  9.291116378682359E+00, -3.903830004980437E+00,  5.579528527088271E-01,  2.722241211034252E+03,  8.161073839248549E+08, -3.226774606230055E-01,
2458469.500000000, A.D. 2018-Dec-17 00:00:00.0000, -3.402007560368353E+08, -7.414926065542967E+08,  2.087207791473344E+07,  9.307013196611077E+00, -3.864265092185648E+00,  5.409380811679568E-01,  2.722143567815050E+03,  8.160781112241634E+08, -3.549150804923785E-01,
2458470.500000000, A.D. 2018-Dec-18 00:00:00.0000, -3.393959335429040E+08, -7.418247786469022E+08,  2.091807893881816E+07,  9.323182100905139E+00, -3.824944621205259E+00,  5.238962183975860E-01,  2.722036648069782E+03,  8.160460574909208E+08, -3.870522875680541E-01,
2458471.500000000, A.D. 2018-Dec-19 00:00:00.0000, -3.385897024627839E+08, -7.421535640801122E+08,  2.096260650268584E+07,  9.339618607558519E+00, -3.785870509473725E+00,  5.068307924644067E-01,  2.721920481534050E+03,  8.160112316396364E+08, -4.190835689165496E-01,
2458472.500000000, A.D. 2018-Dec-20 00:00:00.0000, -3.377820398711634E+08, -7.424789842179017E+08,  2.100565872180012E+07,  9.356318181142367E+00, -3.747044551374522E+00,  4.897452957740287E-01,  2.721795099517245E+03,  8.159736430566298E+08, -4.510035209764330E-01,
2458473.500000000, A.D. 2018-Dec-21 00:00:00.0000, -3.369729232361825E+08, -7.428010605732198E+08,  2.104723401018119E+07,  9.373276258993599E+00, -3.708468403016985E+00,  4.726431432859810E-01,  2.721660534866966E+03,  8.159333015893625E+08, -4.828068750505564E-01,
2458474.500000000, A.D. 2018-Dec-22 00:00:00.0000, -3.361623304196824E+08, -7.431198147969011E+08,  2.108733107356572E+07,  9.390488292703619E+00, -3.670143603956795E+00,  4.555276770634966E-01,  2.721516821929772E+03,  8.158902175346745E+08, -5.144884949504119E-01,
2458475.500000000, A.D. 2018-Dec-23 00:00:00.0000, -3.353502396762014E+08, -7.434352686682564E+08,  2.112594890426615E+07,  9.407949735397128E+00, -3.632071588346193E+00,  4.384021915405006E-01,  2.721363996515389E+03,  8.158444016280519E+08, -5.460433611306278E-01,
2458476.500000000, A.D. 2018-Dec-24 00:00:00.0000, -3.345366296538677E+08, -7.437474440856984E+08,  2.116308677724686E+07,  9.425656023345802E+00, -3.594253677633473E+00,  4.212699322318121E-01,  2.721202095863674E+03,  8.157958650337223E+08, -5.774665700705964E-01,
2458477.500000000, A.D. 2018-Dec-25 00:00:00.0000, -3.337214793951390E+08, -7.440563630568960E+08,  2.119874424509415E+07,  9.443602598078215E+00, -3.556691081296922E+00,  4.041340785732622E-01,  2.721031158609745E+03,  8.157446193342035E+08, -6.087533434381195E-01,
2458478.500000000, A.D. 2018-Dec-26 00:00:00.0000, -3.329047683352694E+08, -7.443620476897570E+08,  2.123292113254529E+07,  9.461784924108546E+00, -3.519384912961067E+00,  3.869977564651438E-01,  2.720851224748423E+03,  8.156906765196402E+08, -6.398990205011852E-01,
2458479.500000000, A.D. 2018-Dec-27 00:00:00.0000, -3.320864763015618E+08, -7.446645201845076E+08,  2.126561753336519E+07,  9.480198453006697E+00, -3.482336193841251E+00,  3.698640703729693E-01,  2.720662335603235E+03,  8.156340489785146E+08, -6.708990396072845E-01,
2458480.500000000, A.D. 2018-Dec-28 00:00:00.0000, -3.312665835159203E+08, -7.449638028247322E+08,  2.129683380792838E+07,  9.498838604184780E+00, -3.445545826995995E+00,  3.527360744203648E-01,  2.720464533796749E+03,  8.155747494887512E+08, -7.017489549491067E-01,
2458481.500000000, A.D. 2018-Dec-29 00:00:00.0000, -3.304450705946987E+08, -7.452599179663489E+08,  2.132657057522541E+07,  9.517700843230624E+00, -3.409014587615078E+00,  3.356166945891904E-01,  2.720257863210351E+03,  8.155127912056589E+08, -7.324444796531139E-01,
2458482.500000000, A.D. 2018-Dec-30 00:00:00.0000, -3.296219185440166E+08, -7.455528880286881E+08,  2.135482870445761E+07,  9.536780647159727E+00, -3.372743181199492E+00,  3.185088426308041E-01,  2.720042368944212E+03,  8.154481876499281E+08, -7.629814155890353E-01,
2458483.500000000, A.D. 2018-Dec-31 00:00:00.0000, -3.287971087666044E+08, -7.458427354892273E+08,  2.138160932084104E+07,  9.556073452993108E+00, -3.336732211005136E+00,  3.014154061663306E-01,  2.719818097305166E+03,  8.153809527039989E+08, -7.933556628361060E-01,
2458484.500000000, A.D. 2019-Jan-01 00:00:00.0000, -3.279706230471563E+08, -7.461294828688366E+08,  2.140691378110871E+07,  9.575574809559633E+00, -3.300982169621850E+00,  2.843391166077399E-01,  2.719585095733972E+03,  8.153111005902528E+08, -8.235632922289382E-01,
2458485.500000000, A.D. 2019-Jan-02 00:00:00.0000, -3.271424435625218E+08, -7.464131527327514E+08,  2.143074368988228E+07,  9.595280236100976E+00, -3.265493447214272E+00,  2.672826696721108E-01,  2.719343412817590E+03,  8.152386458746940E+08, -8.536004776966505E-01,
2458486.500000000, A.D. 2019-Jan-03 00:00:00.0000, -3.263125528732275E+08, -7.466937676734114E+08,  2.145310087676466E+07,  9.615185283930849E+00, -3.230266411197650E+00,  2.502487920259988E-01,  2.719093098217499E+03,  8.151636034454594E+08, -8.834634465510514E-01,
2458487.500000000, A.D. 2019-Jan-04 00:00:00.0000, -3.254809339248657E+08, -7.469713503118550E+08,  2.147398740695447E+07,  9.635285493547242E+00, -3.195301291725337E+00,  2.332401140432012E-01,  2.718834202670831E+03,  8.150859885131586E+08, -9.131485705270480E-01,
2458488.500000000, A.D. 2019-Jan-05 00:00:00.0000, -3.246475700463371E+08, -7.472459232837487E+08,  2.149340556714940E+07,  9.655576453838725E+00, -3.160598223639739E+00,  2.162591681446289E-01,  2.718566777938168E+03,  8.150058165952237E+08, -9.426523513460201E-01,
2458489.500000000, A.D. 2019-Jan-06 00:00:00.0000, -3.238124449464591E+08, -7.475175092343404E+08,  2.151135786255550E+07,  9.676053774807654E+00, -3.126157285020043E+00,  1.993084745650456E-01,  2.718290876777358E+03,  8.149231035080591E+08, -9.719713722064921E-01,
2458490.500000000, A.D. 2019-Jan-07 00:00:00.0000, -3.229755427130281E+08, -7.477861308112570E+08,  2.152784701342961E+07,  9.696713077215010E+00, -3.091978449501625E+00,  1.823904818919292E-01,  2.718006552913957E+03,  8.148378653581822E+08, -1.001102339042593E+00,
2458491.500000000, A.D. 2019-Jan-08 00:00:00.0000, -3.221368478106467E+08, -7.480518106556922E+08,  2.154287594769660E+07,  9.717550022751615E+00, -3.058061601042764E+00,  1.655075525520969E-01,  2.717713861004740E+03,  8.147501185312815E+08, -1.030042079471683E+00,
2458492.500000000, A.D. 2019-Jan-09 00:00:00.0000, -3.212963450765017E+08, -7.483145713961595E+08,  2.155644779490265E+07,  9.738560323215024E+00, -3.024406564426573E+00,  1.486619968118533E-01,  2.717412856606443E+03,  8.146598796828470E+08, -1.058787517475215E+00,
2458493.500000000, A.D. 2019-Jan-10 00:00:00.0000, -3.204540197168232E+08, -7.485744356433659E+08,  2.156856588259253E+07,  9.759739720499951E+00, -2.991013099295076E+00,  1.318560866875307E-01,  2.717103596149080E+03,  8.145671657301720E+08, -1.087335670510049E+00,
2458494.500000000, A.D. 2019-Jan-11 00:00:00.0000, -3.196098573048696E+08, -7.488314259837958E+08,  2.157923373242757E+07,  9.781083977698350E+00, -2.957880884446131E+00,  1.150920405916611E-01,  2.716786136907313E+03,  8.144719938437680E+08, -1.115683660865992E+00,
